STARLINK-4071           
1 52671U 22053R   25181.40119027 -.00000036  00000+0  15798-4 0  9997
2 52671  53.2162 206.6898 0001067  79.5966 280.5146 15.08841135172953
STARLINK-4073           
1 52672U 22053S   25181.47848682  .00000584  00000+0  54790-4 0  9993
2 52672  53.2159 206.3441 0001352  78.4599 281.6544 15.08832747172962
STARLINK-3976           
1 52673U 22053T   25181.79127330  .00000082  00000+0  23224-4 0  9990
2 52673  53.2167 204.9389 0001285  79.4871 280.6266 15.08849573173018
STARLINK-3936           
1 52674U 22053U   25181.27607339 -.00000108  00000+0  11292-4 0  9998
2 52674  53.2157 207.2512 0001190  78.7040 281.4086 15.08839538172947
STARLINK-3934           
1 52675U 22053V   25181.45731189  .00000618  00000+0  56928-4 0  9990
2 52675  53.2158 196.4375 0001098  74.0998 286.0115 15.08844485173091
STARLINK-4006           
1 52676U 22053W   25181.79496777  .00001629  00000+0  12042-3 0  9990
2 52676  53.2170 204.9227 0001588  69.5941 290.5222 15.08838101173017
STARLINK-4028           
1 52677U 22053X   25181.91668981  .00526440  00000+0  43536-2 0  9997
2 52677  53.2173 178.7734 0001469 110.5578 305.7470 15.68130160172955
STARLINK-4074           
1 52678U 22053Y   25181.73331335  .00000608  00000+0  56266-4 0  9997
2 52678  53.2154 195.3028 0001089  75.8692 284.2421 15.08841772173134
STARLINK-4031           
1 52679U 22053Z   25181.77011604  .00000047  00000+0  21068-4 0  9995
2 52679  53.2166 195.0340 0001161  78.2479 281.8643 15.08838420173105
STARLINK-3774           
1 52680U 22053AA  25181.76273041 -.00000051  00000+0  14885-4 0  9996
2 52680  53.2162 194.8344 0001191  80.8266 279.2860 15.08836330173122
STARLINK-4068           
1 52681U 22053AB  25181.76643499 -.00000107  00000+0  11326-4 0  9994
2 52681  53.2166 195.0508 0000970  49.5203 310.5874 15.08838311173102
STARLINK-4017           
1 52682U 22053AC  25181.77747679  .00000529  00000+0  51335-4 0  9992
2 52682  53.2160 195.0003 0001074  84.2337 275.8778 15.08835057173129
STARLINK-4014           
1 52684U 22053AE  25181.31012641  .00000704  00000+0  62270-4 0  9993
2 52684  53.2162 197.0992 0001090  63.7964 296.3140 15.08846746173036
STARLINK-4029           
1 52685U 22053AF  25181.75171401  .00000384  00000+0  42180-4 0  9994
2 52685  53.2158 195.1119 0001160  78.1541 281.9581 15.08839134173088
STARLINK-4005           
1 52686U 22053AG  25181.45830230  .00000436  00000+0  45440-4 0  9994
2 52686  53.2159 196.7133 0001137  77.4543 282.6576 15.08843996173040
STARLINK-3981           
1 52687U 22053AH  25181.41680311  .00002858  00000+0  19742-3 0  9999
2 52687  53.2160 196.6179 0001126  82.4116 277.7004 15.08865361173032
STARLINK-4032           
1 52688U 22053AJ  25181.47938072 -.00000454  00000+0 -10444-4 0  9999
2 52688  53.2159 196.2193 0001286  86.3471 273.7668 15.08839256173044
STARLINK-4078           
1 52689U 22053AK  25181.71510095  .00056288  00000+0  19256-2 0  9990
2 52689  53.2190 188.7704 0001258  74.2919 285.8221 15.29736855173207
STARLINK-4035           
1 52690U 22053AL  25181.75539628  .00000199  00000+0  30601-4 0  9998
2 52690  53.2157 195.0959 0001067  77.3976 282.7136 15.08837575173085
STARLINK-3993           
1 52692U 22053AN  25181.45359016  .00001240  00000+0  95926-4 0  9997
2 52692  53.2161 196.1843 0001121  82.8694 277.2426 15.08848406173070
STARLINK-3946           
1 52693U 22053AP  25181.72595440 -.00000219  00000+0  43084-5 0  9996
2 52693  53.2161 195.2323 0001116  77.4895 282.6222 15.08835642173118
STARLINK-4072           
1 52694U 22053AQ  25181.74067968  .00000158  00000+0  27989-4 0  9994
2 52694  53.2162 195.1637 0001141  81.3949 278.7172 15.08833754173111
STARLINK-4041           
1 52695U 22053AR  25181.77883793  .00000557  00000+0  53076-4 0  9999
2 52695  53.2161 199.7910 0001166  79.5857 280.5266 15.08842836173069
STARLINK-4018           
1 52697U 22053AT  25181.73933117 -.00000265  00000+0  14523-5 0  9995
2 52697  53.2163 200.1712 0000871  81.0421 279.0669 15.08834831173052
STARLINK-4030           
1 52698U 22053AU  25181.74941186 -.00000205  00000+0  52293-5 0  9992
2 52698  53.2159 200.1133 0001172  74.6791 285.4330 15.08836443173044
STARLINK-3987           
1 52699U 22053AV  25181.46329187  .00000077  00000+0  22940-4 0  9994
2 52699  53.2160 191.4375 0001258  87.8020 272.3117 15.08827927173161
STARLINK-4034           
1 52700U 22053AW  25181.77513256  .00000137  00000+0  26680-4 0  9995
2 52700  53.2159 199.6506 0001208  78.5014 281.6113 15.08838640173065
STARLINK-4033           
1 52702U 22053AY  25181.27469802 -.00000127  00000+0  10113-4 0  9993
2 52702  53.2159 202.2852 0001171  91.9363 268.1763 15.08837127172987
STARLINK-4020           
1 52703U 22053AZ  25181.23375391  .00000359  00000+0  40627-4 0  9998
2 52703  53.2156 187.4551 0001086  80.5698 279.5417 15.08837830171921
STARLINK-3999           
1 52704U 22053BA  25181.71215594 -.00000074  00000+0  13410-4 0  9995
2 52704  53.2161 185.2936 0001182  75.4497 284.6626 15.08835869173277
STARLINK-3844           
1 52705U 22053BB  25181.70111493 -.00000590  00000+0 -19019-4 0  9993
2 52705  53.2158 185.3438 0001179  74.7526 285.3596 15.08837995173279
STARLINK-3970           
1 52706U 22053BC  25181.70479353  .00000318  00000+0  38078-4 0  9998
2 52706  53.2157 185.3271 0000927  49.0631 311.0442 15.08848787173274
STARLINK-4007           
1 52707U 22053BD  25181.74895640  .00001081  00000+0  85979-4 0  9994
2 52707  53.2165 185.0133 0001498  80.3303 279.7858 15.08836247173343
STARLINK-3962           
1 52708U 22053BE  25181.72687449  .00000074  00000+0  22728-4 0  9993
2 52708  53.2161 185.2129 0001162  80.5718 279.5405 15.08838015173483
COSMOS 2556             
1 52713U 22054A   25181.90545143  .00002917  00000+0  12551-3 0  9994
2 52713  97.5889 120.9640 0001862  57.4329 302.7087 15.23449869173206
2022-056B               
1 52717U 22056B   25181.91706427  .00000040  00000+0  55051-4 0  9993
2 52717  86.0052 235.1889 0042664 276.3754  83.2524 13.29578717151637
GHGSAT-C3               
1 52737U 22057F   25181.90763211  .00004099  00000+0  15086-3 0  9990
2 52737  97.6150 312.0838 0005287 285.5952  74.4703 15.28448050171772
CONNECTA T1.1           
1 52739U 22057H   25181.93731385  .00032765  00000+0  49446-3 0  9990
2 52739  97.6129 322.9753 0004076 240.8728 119.2118 15.54688252172448
GHGSAT-C5               
1 52744U 22057N   25181.87701341  .00004076  00000+0  14977-3 0  9993
2 52744  97.6237 313.2186 0006298 281.5461  78.5071 15.28500291171778
GHGSAT-C4               
1 52746U 22057Q   25181.92602678  .00004109  00000+0  15114-3 0  9995
2 52746  97.6080 311.2808 0005522 267.4574  92.6033 15.28464467171782
NUSAT-28 (ALICE LEE)    
1 52747U 22057R   25181.91138414  .00022807  00000+0  47148-3 0  9994
2 52747  97.4942 311.9488 0006736 160.7906 199.3598 15.45803743172753
NUSAT-31 (RUBY PAYNE-S) 
1 52752U 22057W   25181.89960882  .00021327  00000+0  43893-3 0  9998
2 52752  97.6358 327.0393 0003736 188.5883 171.5302 15.45968074172703
HAWK-5C                 
1 52754U 22057Y   25181.93117875  .00008890  00000+0  24447-3 0  9995
2 52754  97.6198 318.9719 0005031 247.1036 112.9677 15.37434314172148
HAWK-5B                 
1 52756U 22057AA  25181.93101767  .00008877  00000+0  24408-3 0  9992
2 52756  97.6180 317.3677 0005407 240.8236 119.2467 15.37435877172148
HAWK-5A                 
1 52757U 22057AB  25181.93077063  .00009012  00000+0  24777-3 0  9995
2 52757  97.6189 318.1674 0005698 244.7545 115.3109 15.37432324172146
ICEYE-X20               
1 52759U 22057AD  25181.90299629  .00053151  00000+0  35997-3 0  9997
2 52759  97.5977 338.7480 0004724 164.6081 195.5327 15.74855698173528
VIGORIDE-3              
1 52760U 22057AE  25181.90284050  .00002200  00000+0  96840-4 0  9995
2 52760  97.6159 309.9278 0008102 273.4581  86.5728 15.22933627171621
ION SCV-006             
1 52761U 22057AF  25181.85751095  .00006371  00000+0  18517-3 0  9995
2 52761  97.5673 312.3650 0020400 297.5640  62.3531 15.35636751172034
ICEYE-X17               
1 52762U 22057AG  25181.93662442  .00216348  00000+0  10361-2 0  9997
2 52762  97.5843 328.6840 0009733 202.1843 157.9005 15.82106302172907
SHERPA-AC1              
1 52763U 22057AH  25181.88775687  .00003878  00000+0  13768-3 0  9995
2 52763  97.6226 314.3945 0007430 253.4803 106.5621 15.29655964171883
NUSAT-29 (EDITH CLARKE) 
1 52764U 22057AJ  25181.86468114  .00037061  00000+0  55599-3 0  9997
2 52764  97.4916 314.5484 0005550 116.9888 243.1933 15.54816782173000
ARMSAT1 URDANETA        
1 52765U 22057AK  25181.86548655  .00049597  00000+0  56725-3 0  9996
2 52765  97.6139 332.4965 0006786 198.3947 161.7066 15.61990251173043
PLATFORM-1              
1 52770U 22057AQ  25181.91436454  .00110525  00000+0  93303-3 0  9994
2 52770  97.6061 327.8758 0005371 219.8935 140.1932 15.69420318172802
OMNI-L2                 
1 52771U 22057AR  25181.77718198  .00001022  00000+0  14186-3 0  9990
2 52771  97.5110 262.2422 0007861  47.8143 312.3737 14.79829625168392
GUARDIAN                
1 52775U 22057AV  25181.93067926  .00057474  00000+0  54144-3 0  9998
2 52775  97.6058 327.1461 0003523 216.7163 143.3856 15.66909350172741
GEESAT-1 01             
1 52785U 22058A   25181.92495755  .00002510  00000+0  24059-3 0  9997
2 52785  49.9946  48.5725 0004980 272.1865  87.8509 14.96476098167536
GEESAT-1 02             
1 52786U 22058B   25181.88765563  .00002525  00000+0  24169-3 0  9998
2 52786  50.0004  48.9678 0002006 268.8450  91.2264 14.96495410167520
GEESAT-1 03             
1 52787U 22058C   25181.91718838  .00002607  00000+0  24899-3 0  9997
2 52787  49.9884  47.8863 0004530 268.1835  91.8589 14.96474496167529
GEESAT-1 04             
1 52788U 22058D   25181.93211288  .00002624  00000+0  25039-3 0  9993
2 52788  50.0048  48.9819 0001227 256.2678 103.8129 14.96483001167527
